{
  "links" : {
    "next" : "https://api.nasa.gov/neo/rest/v1/feed?start_date=2009-12-09&end_date=2009-12-09&detailed=true&api_key=t0TVs3DtDT2H8Oy2Zy8m2eVrNsAVKAexjcZXUckd",
    "prev" : "https://api.nasa.gov/neo/rest/v1/feed?start_date=2009-12-07&end_date=2009-12-07&detailed=true&api_key=t0TVs3DtDT2H8Oy2Zy8m2eVrNsAVKAexjcZXUckd",
    "self" : "https://api.nasa.gov/neo/rest/v1/feed?start_date=2009-12-08&end_date=2009-12-08&detailed=true&api_key=t0TVs3DtDT2H8Oy2Zy8m2eVrNsAVKAexjcZXUckd"
  },
  "element_count" : 5,
  "near_earth_objects" : {
    "2009-12-08" : [ {
      "links" : {
        "self" : "https://api.nasa.gov/neo/rest/v1/neo/3483542?api_key=t0TVs3DtDT2H8Oy2Zy8m2eVrNsAVKAexjcZXUckd"
      },
      "neo_reference_id" : "3483542",
      "name" : "(2009 XP7)",
      "nasa_jpl_url" : "http://ssd.jpl.nasa.gov/sbdb.cgi?sstr=3483542",
      "absolute_magnitude_h" : 24.0,
      "estimated_diameter" : {
        "kilometers" : {
          "estimated_diameter_min" : 0.0421264611,
          "estimated_diameter_max" : 0.0941976306
        },
        "meters" : {
          "estimated_diameter_min" : 42.1264610556,
          "estimated_diameter_max" : 94.1976305719
        },
        "miles" : {
          "estimated_diameter_min" : 0.0261761612,
          "estimated_diameter_max" : 0.0585316759
        },
        "feet" : {
          "estimated_diameter_min" : 138.2101784897,
          "estimated_diameter_max" : 309.0473542854
        }
      },
      "is_potentially_hazardous_asteroid" : false,
      "close_approach_data" : [ {
        "close_approach_date" : "2009-12-08",
        "epoch_date_close_approach" : 1260259200000,
        "relative_velocity" : {
          "kilometers_per_second" : "8.8492790507",
          "kilometers_per_hour" : "31857.4045826949",
          "miles_per_hour" : "19794.9523086195"
        },
        "miss_distance" : {
          "astronomical" : "0.0722613014",
          "lunar" : "28.1096477509",
          "kilometers" : "10810137",
          "miles" : "6717108"
        },
        "orbiting_body" : "Earth"
      } ],
      "orbital_data" : {
        "orbit_id" : "11",
        "orbit_determination_date" : "2017-04-06 08:58:45",
        "orbit_uncertainty" : "7",
        "minimum_orbit_intersection" : ".0704312",
        "jupiter_tisserand_invariant" : "4.134",
        "epoch_osculation" : "2458000.5",
        "eccentricity" : ".3879096459137276",
        "semi_major_axis" : "1.671936103709629",
        "inclination" : "12.13836768078115",
        "ascending_node_longitude" : "264.4605123772",
        "orbital_period" : "789.6378200553671",
        "perihelion_distance" : "1.023375961729249",
        "perihelion_argument" : "148.2228895084141",
        "aphelion_distance" : "2.320496245690008",
        "perihelion_time" : "2458312.578419634237",
        "mean_anomaly" : "217.721821048987",
        "mean_motion" : ".4559052148423664",
        "equinox" : "J2000"
      }
    }, {
      "links" : {
        "self" : "https://api.nasa.gov/neo/rest/v1/neo/2230599?api_key=t0TVs3DtDT2H8Oy2Zy8m2eVrNsAVKAexjcZXUckd"
      },
      "neo_reference_id" : "2230599",
      "name" : "230599 (2003 FJ1)",
      "nasa_jpl_url" : "http://ssd.jpl.nasa.gov/sbdb.cgi?sstr=2230599",
      "absolute_magnitude_h" : 17.7,
      "estimated_diameter" : {
        "kilometers" : {
          "estimated_diameter_min" : 0.7665755735,
          "estimated_diameter_max" : 1.7141150923
        },
        "meters" : {
          "estimated_diameter_min" : 766.5755735311,
          "estimated_diameter_max" : 1714.1150923063
        },
        "miles" : {
          "estimated_diameter_min" : 0.4763278307,
          "estimated_diameter_max" : 1.065101409
        },
        "feet" : {
          "estimated_diameter_min" : 2515.0118046636,
          "estimated_diameter_max" : 5623.7373594423
        }
      },
      "is_potentially_hazardous_asteroid" : false,
      "close_approach_data" : [ {
        "close_approach_date" : "2009-12-08",
        "epoch_date_close_approach" : 1260259200000,
        "relative_velocity" : {
          "kilometers_per_second" : "38.153257832",
          "kilometers_per_hour" : "137351.7281950286",
          "miles_per_hour" : "85345.0224442943"
        },
        "miss_distance" : {
          "astronomical" : "0.4674425366",
          "lunar" : "181.835144043",
          "kilometers" : "69928408",
          "miles" : "43451500"
        },
        "orbiting_body" : "Earth"
      } ],
      "orbital_data" : {
        "orbit_id" : "27",
        "orbit_determination_date" : "2017-04-06 09:25:08",
        "orbit_uncertainty" : "0",
        "minimum_orbit_intersection" : ".333397",
        "jupiter_tisserand_invariant" : "3.093",
        "epoch_osculation" : "2458000.5",
        "eccentricity" : ".8171182020991987",
        "semi_major_axis" : "2.170065232677381",
        "inclination" : "20.961607122842",
        "ascending_node_longitude" : "128.5943283580019",
        "orbital_period" : "1167.636360125141",
        "perihelion_distance" : ".39686543131406",
        "perihelion_argument" : "182.0649556924917",
        "aphelion_distance" : "3.943265034040701",
        "perihelion_time" : "2457479.704444113625",
        "mean_anomaly" : "160.569169068186",
        "mean_motion" : ".3083151675419026",
        "equinox" : "J2000"
      }
    }, {
      "links" : {
        "self" : "https://api.nasa.gov/neo/rest/v1/neo/3330688?api_key=t0TVs3DtDT2H8Oy2Zy8m2eVrNsAVKAexjcZXUckd"
      },
      "neo_reference_id" : "3330688",
      "name" : "(2006 HV50)",
      "nasa_jpl_url" : "http://ssd.jpl.nasa.gov/sbdb.cgi?sstr=3330688",
      "absolute_magnitude_h" : 23.6,
      "estimated_diameter" : {
        "kilometers" : {
          "estimated_diameter_min" : 0.0506471459,
          "estimated_diameter_max" : 0.1132504611
        },
        "meters" : {
          "estimated_diameter_min" : 50.6471458835,
          "estimated_diameter_max" : 113.2504610618
        },
        "miles" : {
          "estimated_diameter_min" : 0.0314706677,
          "estimated_diameter_max" : 0.0703705522
        },
        "feet" : {
          "estimated_diameter_min" : 166.1651821003,
          "estimated_diameter_max" : 371.5566426699
        }
      },
      "is_potentially_hazardous_asteroid" : false,
      "close_approach_data" : [ {
        "close_approach_date" : "2009-12-08",
        "epoch_date_close_approach" : 1260259200000,
        "relative_velocity" : {
          "kilometers_per_second" : "14.3210690649",
          "kilometers_per_hour" : "51555.8486336742",
          "miles_per_hour" : "32034.7993912961"
        },
        "miss_distance" : {
          "astronomical" : "0.3815074834",
          "lunar" : "148.4064178467",
          "kilometers" : "57072708",
          "miles" : "35463336"
        },
        "orbiting_body" : "Earth"
      } ],
      "orbital_data" : {
        "orbit_id" : "9",
        "orbit_determination_date" : "2017-04-06 09:08:44",
        "orbit_uncertainty" : "7",
        "minimum_orbit_intersection" : ".0338549",
        "jupiter_tisserand_invariant" : "6.878",
        "epoch_osculation" : "2458000.5",
        "eccentricity" : ".2609929546487141",
        "semi_major_axis" : ".8487756339912385",
        "inclination" : "16.43337861682357",
        "ascending_node_longitude" : "34.73397064593119",
        "orbital_period" : "285.6194525370139",
        "perihelion_distance" : ".6272511734420296",
        "perihelion_argument" : "22.64658849592149",
        "aphelion_distance" : "1.070300094540447",
        "perihelion_time" : "2458022.142184681845",
        "mean_anomaly" : "332.721793224309",
        "mean_motion" : "1.26041835316993",
        "equinox" : "J2000"
      }
    } ]
  }
}